QIANFAN-73              
1 63159U 25046A   25215.51055530  .00000132  00000+0  18616-3 0  9990
2 63159  88.9859 333.5456 0016549 139.1661 221.0733 13.50958953 29696
QIANFAN-74              
1 63160U 25046B   25215.56820455  .00000141  00000+0  20066-3 0  9995
2 63160  88.9859 333.4283 0001956 102.9899 257.1471 13.50963540 29767
QIANFAN-75              
1 63161U 25046C   25215.55588001  .00000132  00000+0  18503-3 0  9996
2 63161  88.9860 333.6613 0017668 142.1623 218.0774 13.50959924 29636
QIANFAN-76              
1 63162U 25046D   25215.55159679  .00000153  00000+0  21849-3 0  9992
2 63162  88.9859 333.6429 0015230 142.1066 218.1160 13.50956088 29643
QIANFAN-77              
1 63163U 25046E   25215.52074751  .00000342  00000+0  23950-3 0  9992
2 63163  88.9857 332.7287 0016709 126.9153 233.3558 13.96006625 30143
QIANFAN-78              
1 63164U 25046F   25215.59287756  .00000150  00000+0  21332-3 0  9990
2 63164  88.9858 333.5041 0016550 144.5157 215.7098 13.50959415 29725
QIANFAN-79              
1 63165U 25046G   25215.54752993  .00000155  00000+0  22072-3 0  9993
2 63165  88.9862 333.6111 0016262 143.0218 217.2057 13.50961510 29666
QIANFAN-80              
1 63166U 25046H   25215.56410221  .00000132  00000+0  18498-3 0  9993
2 63166  88.9859 333.3200 0015169 146.5784 213.6328 13.50961701 29821
